QIANFAN-1               
1 60379U 24140A   25285.29318164  .00000029  00000+0  25417-4 0  9995
2 60379  88.9743 305.6542 0018672  38.3624 321.8851 13.50975965 59058
QIANFAN-2               
1 60380U 24140B   25285.24788399  .00000044  00000+0  49767-4 0  9994
2 60380  88.9731 305.5066 0013057  14.5123 345.6401 13.50968131 59107
QIANFAN-3               
1 60381U 24140C   25285.33023499  .00000029  00000+0  26235-4 0  9996
2 60381  88.9724 305.6353 0014614  25.5784 334.6087 13.50968091 59029
QIANFAN-4               
1 60382U 24140D   25285.30552851  .00000045  00000+0  50804-4 0  9990
2 60382  88.9746 305.5201 0013374  16.6914 343.4675 13.50975084 59147
QIANFAN-5               
1 60383U 24140E   25285.35492804  .00000064  00000+0  80107-4 0  9997
2 60383  88.9724 305.6583 0016247  35.4008 324.8219 13.50971465 59015
QIANFAN-6               
1 60384U 24140F   25285.30147437  .00000040  00000+0  43869-4 0  9990
2 60384  88.9750 305.3936 0013701  22.2744 337.9000 13.50972734 59201
QIANFAN-7               
1 60385U 24140G   25285.34377920  .00000315  00000+0  12197-3 0  9991
2 60385  88.9756 300.9479 0012957 237.8095 122.1843 14.27575354 61637
QIANFAN-8               
1 60386U 24140H   25285.30965024  .00000050  00000+0  59161-4 0  9995
2 60386  88.9752 305.6293 0017206  22.6078 337.5828 13.50970849 59054
