<?xml version="1.0" encoding="UTF-8"?>
<ndm xmlns:xsi="http://www.w3.org/2001/XMLSchema-instance" xsi:noNamespaceSchemaLocation="https://sanaregistry.org/r/ndmxml_unqualified/ndmxml-2.0.0-master-2.0.xsd">
<omm id="CCSDS_OMM_VERS" version="2.0">
<header><CREATION_DATE/><ORIGINATOR/></header><body><segment><metadata><OBJECT_NAME>QIANFAN-1</OBJECT_NAME><OBJECT_ID>2024-140A</OBJECT_ID><CENTER_NAME>EARTH</CENTER_NAME><REF_FRAME>TEME</REF_FRAME><TIME_SYSTEM>UTC</TIME_SYSTEM><MEAN_ELEMENT_THEORY>SGP4</MEAN_ELEMENT_THEORY></metadata><data><meanElements><EPOCH>2025-10-12T07:02:10.893696</EPOCH><MEAN_MOTION>13.50975965</MEAN_MOTION><ECCENTRICITY>.00186727</ECCENTRICITY><INCLINATION>88.9743</INCLINATION><RA_OF_ASC_NODE>305.6542</RA_OF_ASC_NODE><ARG_OF_PERICENTER>38.3624</ARG_OF_PERICENTER><MEAN_ANOMALY>321.8851</MEAN_ANOMALY></meanElements><tleParameters><EPHEMERIS_TYPE>0</EPHEMERIS_TYPE><CLASSIFICATION_TYPE>U</CLASSIFICATION_TYPE><NORAD_CAT_ID>60379</NORAD_CAT_ID><ELEMENT_SET_NO>999</ELEMENT_SET_NO><REV_AT_EPOCH>5905</REV_AT_EPOCH><BSTAR>.2541662E-4</BSTAR><MEAN_MOTION_DOT>.29E-6</MEAN_MOTION_DOT><MEAN_MOTION_DDOT>0</MEAN_MOTION_DDOT></tleParameters></data></segment></body></omm>
<omm id="CCSDS_OMM_VERS" version="2.0">
<header><CREATION_DATE/><ORIGINATOR/></header><body><segment><metadata><OBJECT_NAME>QIANFAN-2</OBJECT_NAME><OBJECT_ID>2024-140B</OBJECT_ID><CENTER_NAME>EARTH</CENTER_NAME><REF_FRAME>TEME</REF_FRAME><TIME_SYSTEM>UTC</TIME_SYSTEM><MEAN_ELEMENT_THEORY>SGP4</MEAN_ELEMENT_THEORY></metadata><data><meanElements><EPOCH>2025-10-12T05:56:57.176736</EPOCH><MEAN_MOTION>13.50968131</MEAN_MOTION><ECCENTRICITY>.00130576</ECCENTRICITY><INCLINATION>88.9731</INCLINATION><RA_OF_ASC_NODE>305.5066</RA_OF_ASC_NODE><ARG_OF_PERICENTER>14.5123</ARG_OF_PERICENTER><MEAN_ANOMALY>345.6401</MEAN_ANOMALY></meanElements><tleParameters><EPHEMERIS_TYPE>0</EPHEMERIS_TYPE><CLASSIFICATION_TYPE>U</CLASSIFICATION_TYPE><NORAD_CAT_ID>60380</NORAD_CAT_ID><ELEMENT_SET_NO>999</ELEMENT_SET_NO><REV_AT_EPOCH>5910</REV_AT_EPOCH><BSTAR>.49767422E-4</BSTAR><MEAN_MOTION_DOT>.44E-6</MEAN_MOTION_DOT><MEAN_MOTION_DDOT>0</MEAN_MOTION_DDOT></tleParameters></data></segment></body></omm>
<omm id="CCSDS_OMM_VERS" version="2.0">
<header><CREATION_DATE/><ORIGINATOR/></header><body><segment><metadata><OBJECT_NAME>QIANFAN-3</OBJECT_NAME><OBJECT_ID>2024-140C</OBJECT_ID><CENTER_NAME>EARTH</CENTER_NAME><REF_FRAME>TEME</REF_FRAME><TIME_SYSTEM>UTC</TIME_SYSTEM><MEAN_ELEMENT_THEORY>SGP4</MEAN_ELEMENT_THEORY></metadata><data><meanElements><EPOCH>2025-10-12T07:55:32.303136</EPOCH><MEAN_MOTION>13.50968091</MEAN_MOTION><ECCENTRICITY>.00146147</ECCENTRICITY><INCLINATION>88.9724</INCLINATION><RA_OF_ASC_NODE>305.6353</RA_OF_ASC_NODE><ARG_OF_PERICENTER>25.5784</ARG_OF_PERICENTER><MEAN_ANOMALY>334.6087</MEAN_ANOMALY></meanElements><tleParameters><EPHEMERIS_TYPE>0</EPHEMERIS_TYPE><CLASSIFICATION_TYPE>U</CLASSIFICATION_TYPE><NORAD_CAT_ID>60381</NORAD_CAT_ID><ELEMENT_SET_NO>999</ELEMENT_SET_NO><REV_AT_EPOCH>5902</REV_AT_EPOCH><BSTAR>.26234809E-4</BSTAR><MEAN_MOTION_DOT>.29E-6</MEAN_MOTION_DOT><MEAN_MOTION_DDOT>0</MEAN_MOTION_DDOT></tleParameters></data></segment></body></omm>
<omm id="CCSDS_OMM_VERS" version="2.0">
<header><CREATION_DATE/><ORIGINATOR/></header><body><segment><metadata><OBJECT_NAME>QIANFAN-4</OBJECT_NAME><OBJECT_ID>2024-140D</OBJECT_ID><CENTER_NAME>EARTH</CENTER_NAME><REF_FRAME>TEME</REF_FRAME><TIME_SYSTEM>UTC</TIME_SYSTEM><MEAN_ELEMENT_THEORY>SGP4</MEAN_ELEMENT_THEORY></metadata><data><meanElements><EPOCH>2025-10-12T07:19:57.663264</EPOCH><MEAN_MOTION>13.50975084</MEAN_MOTION><ECCENTRICITY>.00133741</ECCENTRICITY><INCLINATION>88.9746</INCLINATION><RA_OF_ASC_NODE>305.5201</RA_OF_ASC_NODE><ARG_OF_PERICENTER>16.6914</ARG_OF_PERICENTER><MEAN_ANOMALY>343.4675</MEAN_ANOMALY></meanElements><tleParameters><EPHEMERIS_TYPE>0</EPHEMERIS_TYPE><CLASSIFICATION_TYPE>U</CLASSIFICATION_TYPE><NORAD_CAT_ID>60382</NORAD_CAT_ID><ELEMENT_SET_NO>999</ELEMENT_SET_NO><REV_AT_EPOCH>5914</REV_AT_EPOCH><BSTAR>.50804157E-4</BSTAR><MEAN_MOTION_DOT>.45E-6</MEAN_MOTION_DOT><MEAN_MOTION_DDOT>0</MEAN_MOTION_DDOT></tleParameters></data></segment></body></omm>
<omm id="CCSDS_OMM_VERS" version="2.0">
<header><CREATION_DATE/><ORIGINATOR/></header><body><segment><metadata><OBJECT_NAME>QIANFAN-5</OBJECT_NAME><OBJECT_ID>2024-140E</OBJECT_ID><CENTER_NAME>EARTH</CENTER_NAME><REF_FRAME>TEME</REF_FRAME><TIME_SYSTEM>UTC</TIME_SYSTEM><MEAN_ELEMENT_THEORY>SGP4</MEAN_ELEMENT_THEORY></metadata><data><meanElements><EPOCH>2025-10-12T08:31:05.782656</EPOCH><MEAN_MOTION>13.50971465</MEAN_MOTION><ECCENTRICITY>.00162471</ECCENTRICITY><INCLINATION>88.9724</INCLINATION><RA_OF_ASC_NODE>305.6583</RA_OF_ASC_NODE><ARG_OF_PERICENTER>35.4008</ARG_OF_PERICENTER><MEAN_ANOMALY>324.8219</MEAN_ANOMALY></meanElements><tleParameters><EPHEMERIS_TYPE>0</EPHEMERIS_TYPE><CLASSIFICATION_TYPE>U</CLASSIFICATION_TYPE><NORAD_CAT_ID>60383</NORAD_CAT_ID><ELEMENT_SET_NO>999</ELEMENT_SET_NO><REV_AT_EPOCH>5901</REV_AT_EPOCH><BSTAR>.80106782E-4</BSTAR><MEAN_MOTION_DOT>.64E-6</MEAN_MOTION_DOT><MEAN_MOTION_DDOT>0</MEAN_MOTION_DDOT></tleParameters></data></segment></body></omm>
<omm id="CCSDS_OMM_VERS" version="2.0">
<header><CREATION_DATE/><ORIGINATOR/></header><body><segment><metadata><OBJECT_NAME>QIANFAN-6</OBJECT_NAME><OBJECT_ID>2024-140F</OBJECT_ID><CENTER_NAME>EARTH</CENTER_NAME><REF_FRAME>TEME</REF_FRAME><TIME_SYSTEM>UTC</TIME_SYSTEM><MEAN_ELEMENT_THEORY>SGP4</MEAN_ELEMENT_THEORY></metadata><data><meanElements><EPOCH>2025-10-12T07:14:07.385568</EPOCH><MEAN_MOTION>13.50972734</MEAN_MOTION><ECCENTRICITY>.00137017</ECCENTRICITY><INCLINATION>88.9750</INCLINATION><RA_OF_ASC_NODE>305.3936</RA_OF_ASC_NODE><ARG_OF_PERICENTER>22.2744</ARG_OF_PERICENTER><MEAN_ANOMALY>337.9000</MEAN_ANOMALY></meanElements><tleParameters><EPHEMERIS_TYPE>0</EPHEMERIS_TYPE><CLASSIFICATION_TYPE>U</CLASSIFICATION_TYPE><NORAD_CAT_ID>60384</NORAD_CAT_ID><ELEMENT_SET_NO>999</ELEMENT_SET_NO><REV_AT_EPOCH>5920</REV_AT_EPOCH><BSTAR>.43868963E-4</BSTAR><MEAN_MOTION_DOT>.4E-6</MEAN_MOTION_DOT><MEAN_MOTION_DDOT>0</MEAN_MOTION_DDOT></tleParameters></data></segment></body></omm>
<omm id="CCSDS_OMM_VERS" version="2.0">
<header><CREATION_DATE/><ORIGINATOR/></header><body><segment><metadata><OBJECT_NAME>QIANFAN-7</OBJECT_NAME><OBJECT_ID>2024-140G</OBJECT_ID><CENTER_NAME>EARTH</CENTER_NAME><REF_FRAME>TEME</REF_FRAME><TIME_SYSTEM>UTC</TIME_SYSTEM><MEAN_ELEMENT_THEORY>SGP4</MEAN_ELEMENT_THEORY></metadata><data><meanElements><EPOCH>2025-10-12T08:15:02.522880</EPOCH><MEAN_MOTION>14.27575354</MEAN_MOTION><ECCENTRICITY>.00129578</ECCENTRICITY><INCLINATION>88.9756</INCLINATION><RA_OF_ASC_NODE>300.9479</RA_OF_ASC_NODE><ARG_OF_PERICENTER>237.8095</ARG_OF_PERICENTER><MEAN_ANOMALY>122.1843</MEAN_ANOMALY></meanElements><tleParameters><EPHEMERIS_TYPE>0</EPHEMERIS_TYPE><CLASSIFICATION_TYPE>U</CLASSIFICATION_TYPE><NORAD_CAT_ID>60385</NORAD_CAT_ID><ELEMENT_SET_NO>999</ELEMENT_SET_NO><REV_AT_EPOCH>6163</REV_AT_EPOCH><BSTAR>.12197128E-3</BSTAR><MEAN_MOTION_DOT>.315E-5</MEAN_MOTION_DOT><MEAN_MOTION_DDOT>0</MEAN_MOTION_DDOT></tleParameters></data></segment></body></omm>
<omm id="CCSDS_OMM_VERS" version="2.0">
<header><CREATION_DATE/><ORIGINATOR/></header><body><segment><metadata><OBJECT_NAME>QIANFAN-8</OBJECT_NAME><OBJECT_ID>2024-140H</OBJECT_ID><CENTER_NAME>EARTH</CENTER_NAME><REF_FRAME>TEME</REF_FRAME><TIME_SYSTEM>UTC</TIME_SYSTEM><MEAN_ELEMENT_THEORY>SGP4</MEAN_ELEMENT_THEORY></metadata><data><meanElements><EPOCH>2025-10-12T07:25:53.780736</EPOCH><MEAN_MOTION>13.50970849</MEAN_MOTION><ECCENTRICITY>.00172067</ECCENTRICITY><INCLINATION>88.9752</INCLINATION><RA_OF_ASC_NODE>305.6293</RA_OF_ASC_NODE><ARG_OF_PERICENTER>22.6078</ARG_OF_PERICENTER><MEAN_ANOMALY>337.5828</MEAN_ANOMALY></meanElements><tleParameters><EPHEMERIS_TYPE>0</EPHEMERIS_TYPE><CLASSIFICATION_TYPE>U</CLASSIFICATION_TYPE><NORAD_CAT_ID>60386</NORAD_CAT_ID><ELEMENT_SET_NO>999</ELEMENT_SET_NO><REV_AT_EPOCH>5905</REV_AT_EPOCH><BSTAR>.59160553E-4</BSTAR><MEAN_MOTION_DOT>.5E-6</MEAN_MOTION_DOT><MEAN_MOTION_DDOT>0</MEAN_MOTION_DDOT></tleParameters></data></segment></body></omm>

</ndm>
